start=new Date('2022-03-24T00:00:00.000Z').valueOf();
sats=[{"ECCENTRICITY":"0.00014530","TIME_SYSTEM":"UTC","RA_OF_ASC_NODE":"349.5305","TLE_LINE1":"1 51726U 22016N   22082.91667824  .00006359  00000-0  49670-4 0  9992","CENTER_NAME":"EARTH","INCLINATION":"53.2173","ELEMENT_SET_NO":"999","OBJECT_TYPE":"PAYLOAD","MEAN_MOTION_DOT":"0.00006359","DECAY_DATE":null,"OBJECT_ID":"2022-016N","PERIOD":"91.533","BSTAR":"0.00004967000000","CLASSIFICATION_TYPE":"U","EPOCH":"2022-03-23T22:00:00.999936","PERIAPSIS":"348.752","APOAPSIS":"350.707","SEMIMAJOR_AXIS":"6727.864","REF_FRAME":"TEME","OBJECT_NAME":"STARLINK-3527","MEAN_MOTION_DDOT":"0.0000000000000","MEAN_ANOMALY":"137.6106","SITE":"AFETR","REV_AT_EPOCH":"370","GP_ID":"199540850","EPHEMERIS_TYPE":"0","TLE_LINE2":"2 51726  53.2173 349.5305 0001453  97.9200 137.6106 15.73210851  3700","RCS_SIZE":"LARGE","COUNTRY_CODE":"US","MEAN_ELEMENT_THEORY":"SGP4","NORAD_CAT_ID":"51726","LAUNCH_DATE":"2022-02-21","FILE":"3371636","MEAN_MOTION":"15.73210851","ARG_OF_PERICENTER":"97.9200"},{"MEAN_MOTION_DDOT":"0.0000000000000","REF_FRAME":"TEME","OBJECT_NAME":"STARLINK-3532","SEMIMAJOR_AXIS":"6767.893","PERIAPSIS":"388.902","APOAPSIS":"390.614","CLASSIFICATION_TYPE":"U","EPOCH":"2022-03-23T22:00:00.999936","BSTAR":"-0.00976680000000","OBJECT_ID":"2022-016P","PERIOD":"92.351","DECAY_DATE":null,"MEAN_MOTION_DOT":"-0.00716301","OBJECT_TYPE":"PAYLOAD","ELEMENT_SET_NO":"999","CENTER_NAME":"EARTH","INCLINATION":"53.2176","TLE_LINE1":"1 51727U 22016P   22082.91667824 -.00716301  00000-0 -97668-2 0  9998","RA_OF_ASC_NODE":"349.9383","TIME_SYSTEM":"UTC","ECCENTRICITY":"0.00012650","ARG_OF_PERICENTER":"50.3138","FILE":"3371597","MEAN_MOTION":"15.59274396","LAUNCH_DATE":"2022-02-21","MEAN_ELEMENT_THEORY":"SGP4","NORAD_CAT_ID":"51727","COUNTRY_CODE":"US","RCS_SIZE":"LARGE","EPHEMERIS_TYPE":"0","TLE_LINE2":"2 51727  53.2176 349.9383 0001265  50.3138 314.3482 15.59274396  5989","GP_ID":"199515111","REV_AT_EPOCH":"598","MEAN_ANOMALY":"314.3482","SITE":"AFETR"},{"MEAN_MOTION_DDOT":"0.0000000000000","OBJECT_NAME":"STARLINK-3448","REF_FRAME":"TEME","SEMIMAJOR_AXIS":"6727.871","PERIAPSIS":"348.969","APOAPSIS":"350.502","EPOCH":"2022-03-23T22:00:00.999936","CLASSIFICATION_TYPE":"U","BSTAR":"0.00015546000000","PERIOD":"91.533","OBJECT_ID":"2022-016Q","DECAY_DATE":null,"MEAN_MOTION_DOT":"0.00021261","OBJECT_TYPE":"PAYLOAD","ELEMENT_SET_NO":"999","CENTER_NAME":"EARTH","INCLINATION":"53.2173","TLE_LINE1":"1 51728U 22016Q   22082.91667824  .00021261  00000-0  15546-3 0  9997","RA_OF_ASC_NODE":"349.5281","TIME_SYSTEM":"UTC","ECCENTRICITY":"0.00011390","ARG_OF_PERICENTER":"99.8085","MEAN_MOTION":"15.73208615","FILE":"3371636","LAUNCH_DATE":"2022-02-21","NORAD_CAT_ID":"51728","MEAN_ELEMENT_THEORY":"SGP4","COUNTRY_CODE":"US","RCS_SIZE":"LARGE","TLE_LINE2":"2 51728  53.2173 349.5281 0001139  99.8085 136.9998 15.73208615  3704","EPHEMERIS_TYPE":"0","GP_ID":"199540626","REV_AT_EPOCH":"370","SITE":"AFETR","MEAN_ANOMALY":"136.9998"},{"MEAN_MOTION":"15.73209433","FILE":"3371636","ARG_OF_PERICENTER":"90.7664","NORAD_CAT_ID":"51729","MEAN_ELEMENT_THEORY":"SGP4","LAUNCH_DATE":"2022-02-21","RCS_SIZE":"LARGE","COUNTRY_CODE":"US","EPHEMERIS_TYPE":"0","TLE_LINE2":"2 51729  53.2191 349.5315 0000823  90.7664 144.1415 15.73209433  3709","REV_AT_EPOCH":"370","GP_ID":"199541185","SITE":"AFETR","MEAN_ANOMALY":"144.1415","OBJECT_NAME":"STARLINK-3523","REF_FRAME":"TEME","MEAN_MOTION_DDOT":"0.0000000000000","APOAPSIS":"350.287","PERIAPSIS":"349.180","SEMIMAJOR_AXIS":"6727.868","BSTAR":"0.00016320000000","EPOCH":"2022-03-23T22:00:00.999936","CLASSIFICATION_TYPE":"U","MEAN_MOTION_DOT":"0.00022354","DECAY_DATE":null,"PERIOD":"91.533","OBJECT_ID":"2022-016R","ELEMENT_SET_NO":"999","OBJECT_TYPE":"PAYLOAD","TLE_LINE1":"1 51729U 22016R   22082.91667824  .00022354  00000-0  16320-3 0  9993","INCLINATION":"53.2191","CENTER_NAME":"EARTH","RA_OF_ASC_NODE":"349.5315","ECCENTRICITY":"0.00008230","TIME_SYSTEM":"UTC"},{"PERIOD":"91.533","OBJECT_ID":"2022-016S","DECAY_DATE":null,"MEAN_MOTION_DOT":"0.00007117","EPOCH":"2022-03-23T22:00:00.999936","CLASSIFICATION_TYPE":"U","BSTAR":"0.00005507900000","SEMIMAJOR_AXIS":"6727.888","APOAPSIS":"350.698","PERIAPSIS":"348.809","MEAN_MOTION_DDOT":"0.0000000000000","OBJECT_NAME":"STARLINK-3530","REF_FRAME":"TEME","TIME_SYSTEM":"UTC","ECCENTRICITY":"0.00014040","RA_OF_ASC_NODE":"349.5254","CENTER_NAME":"EARTH","INCLINATION":"53.2174","TLE_LINE1":"1 51730U 22016S   22082.91667824  .00007117  00000-0  55079-4 0  9990","OBJECT_TYPE":"PAYLOAD","ELEMENT_SET_NO":"999","COUNTRY_CODE":"US","RCS_SIZE":"LARGE","LAUNCH_DATE":"2022-02-21","NORAD_CAT_ID":"51730","MEAN_ELEMENT_THEORY":"SGP4","ARG_OF_PERICENTER":"100.0245","MEAN_MOTION":"15.73202404","FILE":"3371636","SITE":"AFETR","MEAN_ANOMALY":"138.1119","GP_ID":"199540514","REV_AT_EPOCH":"370","EPHEMERIS_TYPE":"0","TLE_LINE2":"2 51730  53.2174 349.5254 0001404 100.0245 138.1119 15.73202404  3705"},{"OBJECT_TYPE":"PAYLOAD","ELEMENT_SET_NO":"999","CENTER_NAME":"EARTH","INCLINATION":"53.2171","TLE_LINE1":"1 51731U 22016T   22082.91667824  .00018639  00000-0  13697-3 0  9991","RA_OF_ASC_NODE":"349.5293","TIME_SYSTEM":"UTC","ECCENTRICITY":"0.00012160","MEAN_MOTION_DDOT":"0.0000000000000","REF_FRAME":"TEME","OBJECT_NAME":"STARLINK-3514","SEMIMAJOR_AXIS":"6727.918","PERIAPSIS":"348.965","APOAPSIS":"350.601","CLASSIFICATION_TYPE":"U","EPOCH":"2022-03-23T22:00:00.999936","BSTAR":"0.00013697000000","OBJECT_ID":"2022-016T","PERIOD":"91.534","MEAN_MOTION_DOT":"0.00018639","DECAY_DATE":null,"EPHEMERIS_TYPE":"0","TLE_LINE2":"2 51731  53.2171 349.5293 0001216 100.0295 136.1358 15.73191887  6047","GP_ID":"199515084","REV_AT_EPOCH":"604","MEAN_ANOMALY":"136.1358","SITE":"AFETR","ARG_OF_PERICENTER":"100.0295","FILE":"3371595","MEAN_MOTION":"15.73191887","LAUNCH_DATE":"2022-02-21","MEAN_ELEMENT_THEORY":"SGP4","NORAD_CAT_ID":"51731","COUNTRY_CODE":"US","RCS_SIZE":"LARGE"},{"PERIOD":"91.533","OBJECT_ID":"2022-016U","MEAN_MOTION_DOT":"0.00006706","DECAY_DATE":null,"EPOCH":"2022-03-23T22:00:00.999936","CLASSIFICATION_TYPE":"U","BSTAR":"0.00005215800000","SEMIMAJOR_AXIS":"6727.893","APOAPSIS":"350.755","PERIAPSIS":"348.761","MEAN_MOTION_DDOT":"0.0000000000000","OBJECT_NAME":"STARLINK-3518","REF_FRAME":"TEME","TIME_SYSTEM":"UTC","ECCENTRICITY":"0.00014820","RA_OF_ASC_NODE":"349.5248","CENTER_NAME":"EARTH","INCLINATION":"53.2175","TLE_LINE1":"1 51732U 22016U   22082.91667824  .00006706  00000-0  52158-4 0  9990","OBJECT_TYPE":"PAYLOAD","ELEMENT_SET_NO":"999","COUNTRY_CODE":"US","RCS_SIZE":"MEDIUM","LAUNCH_DATE":"2022-02-21","NORAD_CAT_ID":"51732","MEAN_ELEMENT_THEORY":"SGP4","ARG_OF_PERICENTER":"98.8961","MEAN_MOTION":"15.73200685","FILE":"3371636","SITE":"AFETR","MEAN_ANOMALY":"139.8483","GP_ID":"199540962","REV_AT_EPOCH":"370","TLE_LINE2":"2 51732  53.2175 349.5248 0001482  98.8961 139.8483 15.73200685  3707","EPHEMERIS_TYPE":"0"},{"MEAN_MOTION":"15.73246558","FILE":"3371597","ARG_OF_PERICENTER":"94.0786","RCS_SIZE":"LARGE","COUNTRY_CODE":"US","NORAD_CAT_ID":"51733","MEAN_ELEMENT_THEORY":"SGP4","LAUNCH_DATE":"2022-02-21","TLE_LINE2":"2 51733  53.2191 349.5265 0001259  94.0786 143.3470 15.73246558  5998","EPHEMERIS_TYPE":"0","SITE":"AFETR","MEAN_ANOMALY":"143.3470","REV_AT_EPOCH":"599","GP_ID":"199515114","PERIAPSIS":"348.780","APOAPSIS":"350.474","SEMIMAJOR_AXIS":"6727.762","OBJECT_NAME":"STARLINK-3525","REF_FRAME":"TEME","MEAN_MOTION_DDOT":"0.0000000000000","MEAN_MOTION_DOT":"-0.00049064","DECAY_DATE":null,"PERIOD":"91.530","OBJECT_ID":"2022-016V","BSTAR":"-0.00034651000000","EPOCH":"2022-03-23T22:00:00.999936","CLASSIFICATION_TYPE":"U","TLE_LINE1":"1 51733U 22016V   22082.91667824 -.00049064  00000-0 -34651-3 0  9994","CENTER_NAME":"EARTH","INCLINATION":"53.2191","ELEMENT_SET_NO":"999","OBJECT_TYPE":"PAYLOAD","ECCENTRICITY":"0.00012590","TIME_SYSTEM":"UTC","RA_OF_ASC_NODE":"349.5265"},{"EPHEMERIS_TYPE":"0","TLE_LINE2":"2 51734  53.2175 349.5211 0001375  91.9934 148.5912 15.73254442  6048","GP_ID":"199515085","REV_AT_EPOCH":"604","SITE":"AFETR","MEAN_ANOMALY":"148.5912","ARG_OF_PERICENTER":"91.9934","MEAN_MOTION":"15.73254442","FILE":"3371595","LAUNCH_DATE":"2022-02-21","NORAD_CAT_ID":"51734","MEAN_ELEMENT_THEORY":"SGP4","COUNTRY_CODE":"US","RCS_SIZE":"MEDIUM","OBJECT_TYPE":"PAYLOAD","ELEMENT_SET_NO":"999","INCLINATION":"53.2175","CENTER_NAME":"EARTH","TLE_LINE1":"1 51734U 22016W   22082.91667824 -.00002017  00000-0 -99330-5 0  9999","RA_OF_ASC_NODE":"349.5211","TIME_SYSTEM":"UTC","ECCENTRICITY":"0.00013750","MEAN_MOTION_DDOT":"0.0000000000000","OBJECT_NAME":"STARLINK-3450","REF_FRAME":"TEME","SEMIMAJOR_AXIS":"6727.740","PERIAPSIS":"348.680","APOAPSIS":"350.530","EPOCH":"2022-03-23T22:00:00.999936","CLASSIFICATION_TYPE":"U","BSTAR":"-0.00000993300000","PERIOD":"91.530","OBJECT_ID":"2022-016W","MEAN_MOTION_DOT":"-0.00002017","DECAY_DATE":null},{"GP_ID":"199515119","REV_AT_EPOCH":"604","SITE":"AFETR","MEAN_ANOMALY":"125.6919","EPHEMERIS_TYPE":"0","TLE_LINE2":"2 51735  53.2171 349.5226 0001058 113.6790 125.6919 15.73221420  6044","LAUNCH_DATE":"2022-02-21","NORAD_CAT_ID":"51735","MEAN_ELEMENT_THEORY":"SGP4","COUNTRY_CODE":"US","RCS_SIZE":"LARGE","ARG_OF_PERICENTER":"113.6790","MEAN_MOTION":"15.73221420","FILE":"3371597","RA_OF_ASC_NODE":"349.5226","TIME_SYSTEM":"UTC","ECCENTRICITY":"0.00010580","OBJECT_TYPE":"PAYLOAD","ELEMENT_SET_NO":"999","CENTER_NAME":"EARTH","INCLINATION":"53.2171","TLE_LINE1":"1 51735U 22016X   22082.91667824  .00010279  00000-0  77495-4 0  9994","EPOCH":"2022-03-23T22:00:00.999936","CLASSIFICATION_TYPE":"U","BSTAR":"0.00007749500000","PERIOD":"91.532","OBJECT_ID":"2022-016X","MEAN_MOTION_DOT":"0.00010279","DECAY_DATE":null,"MEAN_MOTION_DDOT":"0.0000000000000","OBJECT_NAME":"STARLINK-3517","REF_FRAME":"TEME","SEMIMAJOR_AXIS":"6727.834","APOAPSIS":"350.411","PERIAPSIS":"348.987"}];
